[{"OBJECT_NAME":"STARLINK-30915","OBJECT_ID":"2023-178G","EPOCH":"2025-08-05T08:23:51.154368","MEAN_MOTION":15.3019289,"ECCENTRICITY":0.0001195,"INCLINATION":53.1592,"RA_OF_ASC_NODE":196.2149,"ARG_OF_PERICENTER":80.9855,"MEAN_ANOMALY":279.128,"EPHEMERIS_TYPE":0,"CLASSIFICATION_TYPE":"U","NORAD_CAT_ID":58380,"ELEMENT_SET_NO":999,"REV_AT_EPOCH":9799,"BSTAR":3.2395e-5,"MEAN_MOTION_DOT":6.0e-6,"MEAN_MOTION_DDOT":0},{"OBJECT_NAME":"STARLINK-30923","OBJECT_ID":"2023-178H","EPOCH":"2025-08-05T14:07:47.759808","MEAN_MOTION":15.3018027,"ECCENTRICITY":0.0001104,"INCLINATION":53.1587,"RA_OF_ASC_NODE":284.9217,"ARG_OF_PERICENTER":77.4194,"MEAN_ANOMALY":282.693,"EPHEMERIS_TYPE":0,"CLASSIFICATION_TYPE":"U","NORAD_CAT_ID":58381,"ELEMENT_SET_NO":999,"REV_AT_EPOCH":9673,"BSTAR":-2.4699e-5,"MEAN_MOTION_DOT":-1.09e-5,"MEAN_MOTION_DDOT":0},{"OBJECT_NAME":"STARLINK-30927","OBJECT_ID":"2023-178J","EPOCH":"2025-08-05T11:19:27.451200","MEAN_MOTION":15.30177263,"ECCENTRICITY":0.0001311,"INCLINATION":53.1589,"RA_OF_ASC_NODE":285.6553,"ARG_OF_PERICENTER":79.6975,"MEAN_ANOMALY":280.4173,"EPHEMERIS_TYPE":0,"CLASSIFICATION_TYPE":"U","NORAD_CAT_ID":58382,"ELEMENT_SET_NO":999,"REV_AT_EPOCH":9676,"BSTAR":-2.5455e-5,"MEAN_MOTION_DOT":-1.112e-5,"MEAN_MOTION_DDOT":0},{"OBJECT_NAME":"STARLINK-30921","OBJECT_ID":"2023-178K","EPOCH":"2025-08-05T10:55:08.870592","MEAN_MOTION":15.30174523,"ECCENTRICITY":0.000101,"INCLINATION":53.1595,"RA_OF_ASC_NODE":285.5554,"ARG_OF_PERICENTER":89.4114,"MEAN_ANOMALY":270.7003,"EPHEMERIS_TYPE":0,"CLASSIFICATION_TYPE":"U","NORAD_CAT_ID":58383,"ELEMENT_SET_NO":999,"REV_AT_EPOCH":9676,"BSTAR":8.6871e-5,"MEAN_MOTION_DOT":2.213e-5,"MEAN_MOTION_DDOT":0},{"OBJECT_NAME":"STARLINK-30825","OBJECT_ID":"2023-178L","EPOCH":"2025-08-05T12:06:23.433696","MEAN_MOTION":15.30189381,"ECCENTRICITY":0.0001193,"INCLINATION":53.1606,"RA_OF_ASC_NODE":285.1249,"ARG_OF_PERICENTER":83.5239,"MEAN_ANOMALY":276.5897,"EPHEMERIS_TYPE":0,"CLASSIFICATION_TYPE":"U","NORAD_CAT_ID":58384,"ELEMENT_SET_NO":999,"REV_AT_EPOCH":9679,"BSTAR":9.8642e-7,"MEAN_MOTION_DOT":-3.3e-6,"MEAN_MOTION_DDOT":0},{"OBJECT_NAME":"STARLINK-30930","OBJECT_ID":"2023-178M","EPOCH":"2025-08-05T13:25:14.810880","MEAN_MOTION":15.3019586,"ECCENTRICITY":0.0001241,"INCLINATION":53.1601,"RA_OF_ASC_NODE":284.7777,"ARG_OF_PERICENTER":96.7522,"MEAN_ANOMALY":263.3619,"EPHEMERIS_TYPE":0,"CLASSIFICATION_TYPE":"U","NORAD_CAT_ID":58385,"ELEMENT_SET_NO":999,"REV_AT_EPOCH":9667,"BSTAR":1.75e-5,"MEAN_MOTION_DOT":1.59e-6,"MEAN_MOTION_DDOT":0},{"OBJECT_NAME":"STARLINK-30929","OBJECT_ID":"2023-178N","EPOCH":"2025-08-05T11:46:47.076096","MEAN_MOTION":15.30171927,"ECCENTRICITY":0.0001063,"INCLINATION":53.1598,"RA_OF_ASC_NODE":285.5711,"ARG_OF_PERICENTER":92.4791,"MEAN_ANOMALY":267.6332,"EPHEMERIS_TYPE":0,"CLASSIFICATION_TYPE":"U","NORAD_CAT_ID":58386,"ELEMENT_SET_NO":999,"REV_AT_EPOCH":9676,"BSTAR":-8.1272e-5,"MEAN_MOTION_DOT":-2.763e-5,"MEAN_MOTION_DDOT":0},{"OBJECT_NAME":"STARLINK-30898","OBJECT_ID":"2023-178P","EPOCH":"2025-08-05T13:07:08.895936","MEAN_MOTION":15.30191838,"ECCENTRICITY":0.0001168,"INCLINATION":53.1599,"RA_OF_ASC_NODE":285.2846,"ARG_OF_PERICENTER":82.6835,"MEAN_ANOMALY":277.4299,"EPHEMERIS_TYPE":0,"CLASSIFICATION_TYPE":"U","NORAD_CAT_ID":58387,"ELEMENT_SET_NO":999,"REV_AT_EPOCH":9679,"BSTAR":3.7482e-5,"MEAN_MOTION_DOT":7.51e-6,"MEAN_MOTION_DDOT":0},{"OBJECT_NAME":"STARLINK-30913","OBJECT_ID":"2023-178Q","EPOCH":"2025-08-05T11:13:22.248768","MEAN_MOTION":15.30177551,"ECCENTRICITY":0.0001287,"INCLINATION":53.1598,"RA_OF_ASC_NODE":285.6318,"ARG_OF_PERICENTER":68.9912,"MEAN_ANOMALY":291.1226,"EPHEMERIS_TYPE":0,"CLASSIFICATION_TYPE":"U","NORAD_CAT_ID":58388,"ELEMENT_SET_NO":999,"REV_AT_EPOCH":9678,"BSTAR":-2.9824e-5,"MEAN_MOTION_DOT":-1.242e-5,"MEAN_MOTION_DDOT":0},{"OBJECT_NAME":"STARLINK-30938","OBJECT_ID":"2023-178R","EPOCH":"2025-08-05T14:24:31.358880","MEAN_MOTION":15.30201337,"ECCENTRICITY":0.0001037,"INCLINATION":53.1597,"RA_OF_ASC_NODE":285.0348,"ARG_OF_PERICENTER":57.8136,"MEAN_ANOMALY":302.2965,"EPHEMERIS_TYPE":0,"CLASSIFICATION_TYPE":"U","NORAD_CAT_ID":58389,"ELEMENT_SET_NO":999,"REV_AT_EPOCH":9680,"BSTAR":2.7309e-5,"MEAN_MOTION_DOT":4.5e-6,"MEAN_MOTION_DDOT":0},{"OBJECT_NAME":"STARLINK-30868","OBJECT_ID":"2023-178S","EPOCH":"2025-08-05T14:12:21.456864","MEAN_MOTION":15.30190139,"ECCENTRICITY":0.0001137,"INCLINATION":53.1596,"RA_OF_ASC_NODE":284.9847,"ARG_OF_PERICENTER":76.3595,"MEAN_ANOMALY":283.7533,"EPHEMERIS_TYPE":0,"CLASSIFICATION_TYPE":"U","NORAD_CAT_ID":58390,"ELEMENT_SET_NO":999,"REV_AT_EPOCH":9680,"BSTAR":4.0415e-5,"MEAN_MOTION_DOT":8.38e-6,"MEAN_MOTION_DDOT":0},{"OBJECT_NAME":"STARLINK-30916","OBJECT_ID":"2023-178T","EPOCH":"2025-08-05T11:23:59.041824","MEAN_MOTION":15.30192078,"ECCENTRICITY":0.0001089,"INCLINATION":53.1595,"RA_OF_ASC_NODE":285.5745,"ARG_OF_PERICENTER":90.4576,"MEAN_ANOMALY":269.6549,"EPHEMERIS_TYPE":0,"CLASSIFICATION_TYPE":"U","NORAD_CAT_ID":58391,"ELEMENT_SET_NO":999,"REV_AT_EPOCH":9678,"BSTAR":2.8706e-5,"MEAN_MOTION_DOT":4.91e-6,"MEAN_MOTION_DDOT":0},{"OBJECT_NAME":"STARLINK-30937","OBJECT_ID":"2023-178U","EPOCH":"2025-08-05T14:00:01.999872","MEAN_MOTION":15.43380564,"ECCENTRICITY":0.0011556,"INCLINATION":53.1544,"RA_OF_ASC_NODE":282.4099,"ARG_OF_PERICENTER":357.3598,"MEAN_ANOMALY":152.2109,"EPHEMERIS_TYPE":0,"CLASSIFICATION_TYPE":"U","NORAD_CAT_ID":58392,"ELEMENT_SET_NO":999,"REV_AT_EPOCH":593,"BSTAR":0.0035536,"MEAN_MOTION_DOT":0.00164511,"MEAN_MOTION_DDOT":0},{"OBJECT_NAME":"STARLINK-30939","OBJECT_ID":"2023-178V","EPOCH":"2025-08-05T10:50:34.535040","MEAN_MOTION":15.30187846,"ECCENTRICITY":0.0001194,"INCLINATION":53.1599,"RA_OF_ASC_NODE":285.5305,"ARG_OF_PERICENTER":86.1865,"MEAN_ANOMALY":273.9272,"EPHEMERIS_TYPE":0,"CLASSIFICATION_TYPE":"U","NORAD_CAT_ID":58393,"ELEMENT_SET_NO":999,"REV_AT_EPOCH":9665,"BSTAR":4.3997e-5,"MEAN_MOTION_DOT":9.44e-6,"MEAN_MOTION_DDOT":0},{"OBJECT_NAME":"STARLINK-30887","OBJECT_ID":"2023-178W","EPOCH":"2025-08-05T11:42:12.216960","MEAN_MOTION":15.30192535,"ECCENTRICITY":0.0001021,"INCLINATION":53.1603,"RA_OF_ASC_NODE":285.5807,"ARG_OF_PERICENTER":83.339,"MEAN_ANOMALY":276.7727,"EPHEMERIS_TYPE":0,"CLASSIFICATION_TYPE":"U","NORAD_CAT_ID":58394,"ELEMENT_SET_NO":999,"REV_AT_EPOCH":9676,"BSTAR":2.2434e-5,"MEAN_MOTION_DOT":3.05e-6,"MEAN_MOTION_DDOT":0},{"OBJECT_NAME":"STARLINK-30934","OBJECT_ID":"2023-178X","EPOCH":"2025-08-05T14:16:56.088768","MEAN_MOTION":15.30190497,"ECCENTRICITY":0.0001219,"INCLINATION":53.1597,"RA_OF_ASC_NODE":285.0782,"ARG_OF_PERICENTER":79.6979,"MEAN_ANOMALY":280.4159,"EPHEMERIS_TYPE":0,"CLASSIFICATION_TYPE":"U","NORAD_CAT_ID":58395,"ELEMENT_SET_NO":999,"REV_AT_EPOCH":9673,"BSTAR":5.623e-5,"MEAN_MOTION_DOT":1.306e-5,"MEAN_MOTION_DDOT":0},{"OBJECT_NAME":"STARLINK-30964","OBJECT_ID":"2023-180A","EPOCH":"2025-08-05T12:53:48.121728","MEAN_MOTION":15.02537928,"ECCENTRICITY":7.48e-5,"INCLINATION":43.0027,"RA_OF_ASC_NODE":150.2434,"ARG_OF_PERICENTER":290.9735,"MEAN_ANOMALY":69.1027,"EPHEMERIS_TYPE":0,"CLASSIFICATION_TYPE":"U","NORAD_CAT_ID":58402,"ELEMENT_SET_NO":999,"REV_AT_EPOCH":9507,"BSTAR":4.7555e-5,"MEAN_MOTION_DOT":4.39e-6,"MEAN_MOTION_DDOT":0}]
