STARLINK-30915          
1 58380U 23178G   25217.34989762  .00000600  00000+0  32395-4 0  9991
2 58380  53.1592 196.2149 0001195  80.9855 279.1280 15.30192890 97995
STARLINK-30923          
1 58381U 23178H   25217.58874722 -.00001090  00000+0 -24699-4 0  9991
2 58381  53.1587 284.9217 0001104  77.4194 282.6930 15.30180270 96739
STARLINK-30927          
1 58382U 23178J   25217.47184550 -.00001112  00000+0 -25455-4 0  9999
2 58382  53.1589 285.6553 0001311  79.6975 280.4173 15.30177263 96760
STARLINK-30921          
1 58383U 23178K   25217.45496378  .00002213  00000+0  86871-4 0  9992
2 58383  53.1595 285.5554 0001010  89.4114 270.7003 15.30174523 96768
STARLINK-30825          
1 58384U 23178L   25217.50443789 -.00000330  00000+0  98642-6 0  9997
2 58384  53.1606 285.1249 0001193  83.5239 276.5897 15.30189381 96790
STARLINK-30930          
1 58385U 23178M   25217.55919920  .00000159  00000+0  17500-4 0  9998
2 58385  53.1601 284.7777 0001241  96.7522 263.3619 15.30195860 96674
STARLINK-30929          
1 58386U 23178N   25217.49082264 -.00002763  00000+0 -81272-4 0  9996
2 58386  53.1598 285.5711 0001063  92.4791 267.6332 15.30171927 96767
STARLINK-30898          
1 58387U 23178P   25217.54663074  .00000751  00000+0  37482-4 0  9994
2 58387  53.1599 285.2846 0001168  82.6835 277.4299 15.30191838 96798
STARLINK-30913          
1 58388U 23178Q   25217.46761862 -.00001242  00000+0 -29824-4 0  9999
2 58388  53.1598 285.6318 0001287  68.9912 291.1226 15.30177551 96789
STARLINK-30938          
1 58389U 23178R   25217.60036295  .00000450  00000+0  27309-4 0  9995
2 58389  53.1597 285.0348 0001037  57.8136 302.2965 15.30201337 96801
STARLINK-30868          
1 58390U 23178S   25217.59191501  .00000838  00000+0  40415-4 0  9990
2 58390  53.1596 284.9847 0001137  76.3595 283.7533 15.30190139 96801
STARLINK-30916          
1 58391U 23178T   25217.47498891  .00000491  00000+0  28706-4 0  9994
2 58391  53.1595 285.5745 0001089  90.4576 269.6549 15.30192078 96788
STARLINK-30937          
1 58392U 23178U   25217.58335648  .00164511  00000+0  35536-2 0  9998
2 58392  53.1544 282.4099 0011556 357.3598 152.2109 15.43380564  5939
STARLINK-30939          
1 58393U 23178V   25217.45178860  .00000944  00000+0  43997-4 0  9997
2 58393  53.1599 285.5305 0001194  86.1865 273.9272 15.30187846 96650
STARLINK-30887          
1 58394U 23178W   25217.48764140  .00000305  00000+0  22434-4 0  9997
2 58394  53.1603 285.5807 0001021  83.3390 276.7727 15.30192535 96764
STARLINK-30934          
1 58395U 23178X   25217.59509362  .00001306  00000+0  56230-4 0  9996
2 58395  53.1597 285.0782 0001219  79.6979 280.4159 15.30190497 96737
STARLINK-30964          
1 58402U 23180A   25217.53736252  .00000439  00000+0  47555-4 0  9998
2 58402  43.0027 150.2434 0000748 290.9735  69.1027 15.02537928 95078
